SL-16 R/B               
1 22566U 93016B   25310.44720890 -.00000110  00000+0 -32243-4 0  9996
2 22566  71.0047 114.0251 0009402 163.2255 196.9181 14.15278252684735
COSMOS 2242             
1 22626U 93024A   25310.51690252  .00002961  00000+0  26195-3 0  9990
2 22626  82.5222  24.4564 0016413   4.9001 355.2378 14.95880636761978
SL-16 R/B               
1 22803U 93059B   25310.59401045 -.00000016  00000+0  15932-4 0  9991
2 22803  70.9891 270.7053 0015803  30.9684 329.2368 14.17202174662097
ARIANE 40 R/B           
1 22830U 93061H   25310.65361499  .00000387  00000+0  15789-3 0  9998
2 22830  98.5120  16.8329 0009629 290.1631  69.8518 14.32766333676485
COSMOS 2278             
1 23087U 94023A   25310.74888735  .00000204  00000+0  13150-3 0  9997
2 23087  71.0525  72.3049 0010294 225.6526 134.3754 14.14332621627426
SL-16 R/B               
1 23088U 94023B   25310.49814358 -.00000064  00000+0 -84362-5 0  9991
2 23088  71.0006 329.5972 0001737 175.2298 184.8841 14.14993182628660
SL-16 R/B               
1 23343U 94074B   25310.57061066  .00000762  00000+0  10923-3 0  9993
2 23343  97.7250 341.3045 0005130 260.4690 251.1424 14.79225387669045
SL-16 R/B               
1 23405U 94077B   25310.81046536  .00000271  00000+0  16299-3 0  9994
2 23405  70.9819 250.9966 0003633 313.2649  46.8171 14.15540102598844
ARIANE 40+ R/B          
1 23561U 95021B   25310.68335116  .00000513  00000+0  17782-3 0  9994
2 23561  98.4693  18.7008 0007494 143.5864   7.8037 14.39651603601546
SL-16 R/B               
1 23705U 95058B   25310.74068462  .00000184  00000+0  11825-3 0  9994
2 23705  71.0212  78.3802 0014519 301.9683  58.0028 14.15475053550457
